CCSDS_OMM_VERS = 2.0
CREATION_DATE  = 
ORIGINATOR     = 

OBJECT_NAME    = IDEFIX & ARIANE 42P R/B
OBJECT_ID      = 2002-021B
CENTER_NAME    = EARTH
REF_FRAME      = TEME
TIME_SYSTEM    = UTC
MEAN_ELEMENT_THEORY = SGP/SGP4

EPOCH          = 2026-02-15T09:37:28.656768
MEAN_MOTION    = 14.31010076
ECCENTRICITY   = .00106302
INCLINATION    = 98.5848
RA_OF_ASC_NODE = 345.2770
ARG_OF_PERICENTER = 252.4247
MEAN_ANOMALY   = 107.5775

EPHEMERIS_TYPE = 0
CLASSIFICATION_TYPE = U
NORAD_CAT_ID   = 27422
ELEMENT_SET_NO = 999
REV_AT_EPOCH   = 24083
BSTAR          = .14369673E-3
MEAN_MOTION_DOT = .334E-5
MEAN_MOTION_DDOT = 0

CCSDS_OMM_VERS = 2.0
CREATION_DATE  = 
ORIGINATOR     = 

OBJECT_NAME    = AQUA
OBJECT_ID      = 2002-022A
CENTER_NAME    = EARTH
REF_FRAME      = TEME
TIME_SYSTEM    = UTC
MEAN_ELEMENT_THEORY = SGP/SGP4

EPOCH          = 2026-02-15T13:50:00.413088
MEAN_MOTION    = 14.61921163
ECCENTRICITY   = .00012702
INCLINATION    = 98.4133
RA_OF_ASC_NODE = 13.5458
ARG_OF_PERICENTER = 48.6848
MEAN_ANOMALY   = 5.6964

EPHEMERIS_TYPE = 0
CLASSIFICATION_TYPE = U
NORAD_CAT_ID   = 27424
ELEMENT_SET_NO = 999
REV_AT_EPOCH   = 26550
BSTAR          = .2369375E-3
MEAN_MOTION_DOT = .1137E-4
MEAN_MOTION_DDOT = 0

CCSDS_OMM_VERS = 2.0
CREATION_DATE  = 
ORIGINATOR     = 

OBJECT_NAME    = CZ-4B R/B
OBJECT_ID      = 2002-024C
CENTER_NAME    = EARTH
REF_FRAME      = TEME
TIME_SYSTEM    = UTC
MEAN_ELEMENT_THEORY = SGP/SGP4

EPOCH          = 2026-02-15T03:32:05.997696
MEAN_MOTION    = 14.14543456
ECCENTRICITY   = .00512004
INCLINATION    = 98.8891
RA_OF_ASC_NODE = 99.6620
ARG_OF_PERICENTER = 87.2866
MEAN_ANOMALY   = 294.6683

EPHEMERIS_TYPE = 0
CLASSIFICATION_TYPE = U
NORAD_CAT_ID   = 27432
ELEMENT_SET_NO = 999
REV_AT_EPOCH   = 22605
BSTAR          = .42694052E-4
MEAN_MOTION_DOT = .39E-6
MEAN_MOTION_DDOT = 0

CCSDS_OMM_VERS = 2.0
CREATION_DATE  = 
ORIGINATOR     = 

OBJECT_NAME    = MIDORI II (ADEOS-II)
OBJECT_ID      = 2002-056A
CENTER_NAME    = EARTH
REF_FRAME      = TEME
TIME_SYSTEM    = UTC
MEAN_ELEMENT_THEORY = SGP/SGP4

EPOCH          = 2026-02-15T11:19:44.834016
MEAN_MOTION    = 14.29268656
ECCENTRICITY   = .00021629
INCLINATION    = 98.7729
RA_OF_ASC_NODE = 4.8019
ARG_OF_PERICENTER = 73.2610
MEAN_ANOMALY   = 286.8809

EPHEMERIS_TYPE = 0
CLASSIFICATION_TYPE = U
NORAD_CAT_ID   = 27597
ELEMENT_SET_NO = 999
REV_AT_EPOCH   = 20712
BSTAR          = .16912283E-3
MEAN_MOTION_DOT = .385E-5
MEAN_MOTION_DDOT = 0

CCSDS_OMM_VERS = 2.0
CREATION_DATE  = 
ORIGINATOR     = 

OBJECT_NAME    = H-2A R/B
OBJECT_ID      = 2002-056E
CENTER_NAME    = EARTH
REF_FRAME      = TEME
TIME_SYSTEM    = UTC
MEAN_ELEMENT_THEORY = SGP/SGP4

EPOCH          = 2026-02-15T12:35:42.632736
MEAN_MOTION    = 14.33745362
ECCENTRICITY   = .0069227
INCLINATION    = 98.3162
RA_OF_ASC_NODE = 7.7398
ARG_OF_PERICENTER = 227.0332
MEAN_ANOMALY   = 244.8431

EPHEMERIS_TYPE = 0
CLASSIFICATION_TYPE = U
NORAD_CAT_ID   = 27601
ELEMENT_SET_NO = 999
REV_AT_EPOCH   = 21093
BSTAR          = .13803193E-3
MEAN_MOTION_DOT = .352E-5
MEAN_MOTION_DDOT = 0

CCSDS_OMM_VERS = 2.0
CREATION_DATE  = 
ORIGINATOR     = 

OBJECT_NAME    = CZ-4B R/B
OBJECT_ID      = 2003-049C
CENTER_NAME    = EARTH
REF_FRAME      = TEME
TIME_SYSTEM    = UTC
MEAN_ELEMENT_THEORY = SGP/SGP4

EPOCH          = 2026-02-15T12:21:54.956160
MEAN_MOTION    = 14.54996663
ECCENTRICITY   = .00471463
INCLINATION    = 98.6854
RA_OF_ASC_NODE = 40.5543
ARG_OF_PERICENTER = 300.2005
MEAN_ANOMALY   = 59.4526

EPHEMERIS_TYPE = 0
CLASSIFICATION_TYPE = U
NORAD_CAT_ID   = 28059
ELEMENT_SET_NO = 999
REV_AT_EPOCH   = 18337
BSTAR          = .14361057E-3
MEAN_MOTION_DOT = .575E-5
MEAN_MOTION_DDOT = 0

CCSDS_OMM_VERS = 2.0
CREATION_DATE  = 
ORIGINATOR     = 

OBJECT_NAME    = CZ-2C R/B
OBJECT_ID      = 2004-012C
CENTER_NAME    = EARTH
REF_FRAME      = TEME
TIME_SYSTEM    = UTC
MEAN_ELEMENT_THEORY = SGP/SGP4

EPOCH          = 2026-02-15T03:20:13.108704
MEAN_MOTION    = 15.61870521
ECCENTRICITY   = .00153008
INCLINATION    = 97.7292
RA_OF_ASC_NODE = 109.3383
ARG_OF_PERICENTER = 37.6191
MEAN_ANOMALY   = 322.6132

EPHEMERIS_TYPE = 0
CLASSIFICATION_TYPE = U
NORAD_CAT_ID   = 28222
ELEMENT_SET_NO = 999
REV_AT_EPOCH   = 20075
BSTAR          = .52080946E-3
MEAN_MOTION_DOT = .45502E-3
MEAN_MOTION_DDOT = 0

CCSDS_OMM_VERS = 2.0
CREATION_DATE  = 
ORIGINATOR     = 

OBJECT_NAME    = SL-16 R/B
OBJECT_ID      = 2004-021B
CENTER_NAME    = EARTH
REF_FRAME      = TEME
TIME_SYSTEM    = UTC
MEAN_ELEMENT_THEORY = SGP/SGP4

EPOCH          = 2026-02-15T00:59:14.760384
MEAN_MOTION    = 14.14593362
ECCENTRICITY   = .00031711
INCLINATION    = 70.9990
RA_OF_ASC_NODE = 280.0244
ARG_OF_PERICENTER = 65.2605
MEAN_ANOMALY   = 294.8847

EPHEMERIS_TYPE = 0
CLASSIFICATION_TYPE = U
NORAD_CAT_ID   = 28353
ELEMENT_SET_NO = 999
REV_AT_EPOCH   = 11963
BSTAR          = .19698591E-3
MEAN_MOTION_DOT = .331E-5
MEAN_MOTION_DDOT = 0

CCSDS_OMM_VERS = 2.0
CREATION_DATE  = 
ORIGINATOR     = 

OBJECT_NAME    = CZ-4B R/B
OBJECT_ID      = 2004-035C
CENTER_NAME    = EARTH
REF_FRAME      = TEME
TIME_SYSTEM    = UTC
MEAN_ELEMENT_THEORY = SGP/SGP4

EPOCH          = 2026-02-15T12:36:01.734912
MEAN_MOTION    = 15.28646402
ECCENTRICITY   = .00336663
INCLINATION    = 97.3536
RA_OF_ASC_NODE = 81.0370
ARG_OF_PERICENTER = 49.7354
MEAN_ANOMALY   = 310.6821

EPHEMERIS_TYPE = 0
CLASSIFICATION_TYPE = U
NORAD_CAT_ID   = 28415
ELEMENT_SET_NO = 999
REV_AT_EPOCH   = 17652
BSTAR          = .32195457E-3
MEAN_MOTION_DOT = .9048E-4
MEAN_MOTION_DDOT = 0

CCSDS_OMM_VERS = 2.0
CREATION_DATE  = 
ORIGINATOR     = 

OBJECT_NAME    = CZ-2C R/B
OBJECT_ID      = 2004-046B
CENTER_NAME    = EARTH
REF_FRAME      = TEME
TIME_SYSTEM    = UTC
MEAN_ELEMENT_THEORY = SGP/SGP4

EPOCH          = 2026-02-15T07:52:13.585728
MEAN_MOTION    = 14.26984258
ECCENTRICITY   = .01385103
INCLINATION    = 98.1995
RA_OF_ASC_NODE = 322.7013
ARG_OF_PERICENTER = 220.6583
MEAN_ANOMALY   = 138.4193

EPHEMERIS_TYPE = 0
CLASSIFICATION_TYPE = U
NORAD_CAT_ID   = 28480
ELEMENT_SET_NO = 999
REV_AT_EPOCH   = 10531
BSTAR          = .6489898E-4
MEAN_MOTION_DOT = .133E-5
MEAN_MOTION_DDOT = 0

CCSDS_OMM_VERS = 2.0
CREATION_DATE  = 
ORIGINATOR     = 

OBJECT_NAME    = ARIANE 5 R/B
OBJECT_ID      = 2004-049H
CENTER_NAME    = EARTH
REF_FRAME      = TEME
TIME_SYSTEM    = UTC
MEAN_ELEMENT_THEORY = SGP/SGP4

EPOCH          = 2026-02-15T11:14:08.764800
MEAN_MOTION    = 14.85222337
ECCENTRICITY   = .00853401
INCLINATION    = 98.2589
RA_OF_ASC_NODE = 214.0992
ARG_OF_PERICENTER = 63.5442
MEAN_ANOMALY   = 297.4495

EPHEMERIS_TYPE = 0
CLASSIFICATION_TYPE = U
NORAD_CAT_ID   = 28499
ELEMENT_SET_NO = 999
REV_AT_EPOCH   = 14249
BSTAR          = .1256803E-3
MEAN_MOTION_DOT = .1086E-4
MEAN_MOTION_DDOT = 0

CCSDS_OMM_VERS = 2.0
CREATION_DATE  = 
ORIGINATOR     = 

OBJECT_NAME    = CZ-2D R/B
OBJECT_ID      = 2005-024B
CENTER_NAME    = EARTH
REF_FRAME      = TEME
TIME_SYSTEM    = UTC
MEAN_ELEMENT_THEORY = SGP/SGP4

EPOCH          = 2026-02-15T12:03:02.593440
MEAN_MOTION    = 15.58154796
ECCENTRICITY   = .00076426
INCLINATION    = 97.3611
RA_OF_ASC_NODE = 60.8698
ARG_OF_PERICENTER = 99.5521
MEAN_ANOMALY   = 260.6598

EPHEMERIS_TYPE = 0
CLASSIFICATION_TYPE = U
NORAD_CAT_ID   = 28738
ELEMENT_SET_NO = 999
REV_AT_EPOCH   = 13632
BSTAR          = .64255302E-3
MEAN_MOTION_DOT = .48577E-3
MEAN_MOTION_DDOT = 0

