IDEFIX & ARIANE 42P R/B 
1 27422U 02021B   26046.40102612  .00000334  00000+0  14370-3 0  9993
2 27422  98.5848 345.2770 0010630 252.4247 107.5775 14.31010076240837
AQUA                    
1 27424U 02022A   26046.57639367  .00001137  00000+0  23694-3 0  9997
2 27424  98.4133  13.5458 0001270  48.6848   5.6964 14.61921163265505
CZ-4B R/B               
1 27432U 02024C   26046.14729164  .00000039  00000+0  42694-4 0  9998
2 27432  98.8891  99.6620 0051200  87.2866 294.6683 14.14543456226050
MIDORI II (ADEOS-II)    
1 27597U 02056A   26046.47204669  .00000385  00000+0  16912-3 0  9996
2 27597  98.7729   4.8019 0002162  73.2610 286.8809 14.29268656207128
H-2A R/B                
1 27601U 02056E   26046.52479899  .00000352  00000+0  13803-3 0  9997
2 27601  98.3162   7.7398 0069227 227.0332 244.8431 14.33745362210935
CZ-4B R/B               
1 28059U 03049C   26046.51521940  .00000575  00000+0  14361-3 0  9999
2 28059  98.6854  40.5543 0047146 300.2005  59.4526 14.54996663183375
CZ-2C R/B               
1 28222U 04012C   26046.13904061  .00045502  00000+0  52081-3 0  9999
2 28222  97.7292 109.3383 0015300  37.6191 322.6132 15.61870521200756
SL-16 R/B               
1 28353U 04021B   26046.04114306  .00000331  00000+0  19699-3 0  9998
2 28353  70.9990 280.0244 0003171  65.2605 294.8847 14.14593362119633
CZ-4B R/B               
1 28415U 04035C   26046.52502008  .00009048  00000+0  32195-3 0  9995
2 28415  97.3536  81.0370 0033666  49.7354 310.6821 15.28646402176520
CZ-2C R/B               
1 28480U 04046B   26046.32793502  .00000133  00000+0  64899-4 0  9991
2 28480  98.1995 322.7013 0138510 220.6583 138.4193 14.26984258105315
ARIANE 5 R/B            
1 28499U 04049H   26046.46815700  .00001086  00000+0  12568-3 0  9997
2 28499  98.2589 214.0992 0085340  63.5442 297.4495 14.85222337142493
CZ-2D R/B               
1 28738U 05024B   26046.50211335  .00048577  00000+0  64255-3 0  9992
2 28738  97.3611  60.8698 0007642  99.5521 260.6598 15.58154796136326
